NORAD_CAT_ID,OBJECT_NAME,OBJECT_TYPE,EPOCH,MEAN_MOTION,ECCENTRICITY,INCLINATION,RA_OF_ASC_NODE,ARG_OF_PERICENTER,MEAN_ANOMALY,BSTAR,MEAN_MOTION_DOT,MEAN_MOTION_DDOT,TLE_LINE0,TLE_LINE1,TLE_LINE2,SEMIMAJOR_AXIS,PERIOD,APOGEE,PERIGEE,DECAYED
56785.0,STARLINK-5931,PAYLOAD,2023-11-10 11:28:49,14.98333505,0.000272,69.9999,328.265,261.3121,98.773,-9.3746e-05,-1.211e-05,0.0,0 STARLINK-5931,1 56785U 23078U   23314.47835246 -.00001211  00000-0 -93746-4 0  9993,2 56785  69.9999 328.2650 0002720 261.3121  98.7730 14.98333505 26011,6950.182,96.107,573.938,570.157,0.0
56785.0,STARLINK-5931,PAYLOAD,2023-11-11 03:30:09,14.98342532,0.0002154,69.9995,326.5818,267.452,92.6393,-0.00018061,-2.248e-05,0.0,0 STARLINK-5931,1 56785U 23078U   23315.14594711 -.00002248  00000-0 -18061-3 0  9994,2 56785  69.9995 326.5818 0002154 267.4520  92.6393 14.98342532 25685,6950.154,96.106,573.516,570.522,0.0
56785.0,STARLINK-5931,PAYLOAD,2023-11-11 09:54:42,14.9833723,0.0001998,70.0002,325.9087,263.3675,96.7256,-0.00010142,-1.303e-05,0.0,0 STARLINK-5931,1 56785U 23078U   23315.41298662 -.00001303  00000-0 -10142-3 0  9993,2 56785  70.0002 325.9087 0001998 263.3675  96.7256 14.98337230 26154,6950.171,96.107,573.424,570.647,0.0
56785.0,STARLINK-5931,PAYLOAD,2023-11-11 17:55:20,14.98360967,0.0001363,70.0021,325.0677,262.5275,97.5729,8.3401e-05,9.03e-06,0.0,0 STARLINK-5931,1 56785U 23078U   23315.74676888  .00000903  00000-0  83401-4 0  9991,2 56785  70.0021 325.0677 0001363 262.5275  97.5729 14.98360967 25778,6950.097,96.105,572.909,571.015,0.0
56785.0,STARLINK-5931,PAYLOAD,2023-11-12 03:32:10,14.98323209,0.0002631,69.9991,324.0569,268.7019,91.3839,0.00013863,1.561e-05,0.0,0 STARLINK-5931,1 56785U 23078U   23316.14734422  .00001561  00000-0  13863-3 0  9990,2 56785  69.9991 324.0569 0002631 268.7019  91.3839 14.98323209 25832,6950.214,96.107,573.907,570.25,0.0
56785.0,STARLINK-5931,PAYLOAD,2023-11-12 08:20:34,14.98330042,0.0002629,69.999,323.5518,269.5533,90.5325,3.2324e-05,2.93e-06,0.0,0 STARLINK-5931,1 56785U 23078U   23316.34762337  .00000293  00000-0  32324-4 0  9993,2 56785  69.9990 323.5518 0002629 269.5533  90.5325 14.98330042 26291,6950.193,96.107,573.885,570.231,0.0
56785.0,STARLINK-5931,PAYLOAD,2023-11-13 03:34:11,14.98331494,0.0002608,69.9991,321.5317,269.444,90.6421,-1.4587e-05,-2.67e-06,0.0,0 STARLINK-5931,1 56785U 23078U   23317.14874288 -.00000267  00000-0 -14587-4 0  9995,2 56785  69.9991 321.5317 0002608 269.4440  90.6421 14.98331494 25985,6950.188,96.107,573.866,570.241,0.0
56785.0,STARLINK-5931,PAYLOAD,2023-11-13 09:58:43,14.98332918,0.0002611,69.9991,320.8583,270.9425,89.1435,1.6937e-06,-7.3e-07,0.0,0 STARLINK-5931,1 56785U 23078U   23317.41578116 -.00000073  00000-0  16937-5 0  9992,2 56785  69.9991 320.8583 0002611 270.9425  89.1435 14.98332918 26459,6950.184,96.107,573.864,570.234,0.0
56785.0,STARLINK-5931,PAYLOAD,2023-11-13 17:59:24,14.98329929,0.0002637,69.999,320.0162,271.9227,88.163,-3.077e-05,-4.6e-06,0.0,0 STARLINK-5931,1 56785U 23078U   23317.74958335 -.00000460  00000-0 -30770-4 0  9994,2 56785  69.9990 320.0162 0002637 271.9227  88.1630 14.98329929 26502,6950.193,96.107,573.891,570.225,0.0
56785.0,STARLINK-5931,PAYLOAD,2023-11-14 03:36:12,14.98328889,0.0002689,69.9987,319.0062,271.7534,88.3317,-1.3319e-05,-2.52e-06,0.0,0 STARLINK-5931,1 56785U 23078U   23318.15014314 -.00000252  00000-0 -13319-4 0  9999,2 56785  69.9987 319.0062 0002689 271.7534  88.3317 14.98328889 26138,6950.196,96.107,573.93,570.192,0.0
56785.0,STARLINK-5931,PAYLOAD,2023-11-14 10:00:44,14.98331027,0.0002707,69.9988,318.3327,271.6864,88.3985,-1.9361e-05,-3.24e-06,0.0,0 STARLINK-5931,1 56785U 23078U   23318.41718175 -.00000324  00000-0 -19361-4 0  9997,2 56785  69.9988 318.3327 0002707 271.6864  88.3985 14.98331027 26602,6950.19,96.107,573.936,570.173,0.0
56785.0,STARLINK-5931,PAYLOAD,2023-11-14 18:01:24,14.98329701,0.0002667,69.999,317.4909,271.9649,88.1205,-1.0844e-05,-2.22e-06,0.0,0 STARLINK-5931,1 56785U 23078U   23318.75098240 -.00000222  00000-0 -10844-4 0  9992,2 56785  69.9990 317.4909 0002667 271.9649  88.1205 14.98329701 26654,6950.194,96.107,573.912,570.205,0.0
56785.0,STARLINK-5931,PAYLOAD,2023-11-15 03:38:13,14.98328888,0.0002674,69.999,316.481,271.9204,88.1648,-2.4974e-05,-3.91e-06,0.0,0 STARLINK-5931,1 56785U 23078U   23319.15154331 -.00000391  00000-0 -24974-4 0  9997,2 56785  69.9990 316.4810 0002674 271.9204  88.1648 14.98328888 26284,6950.196,96.107,573.92,570.203,0.0
56785.0,STARLINK-5931,PAYLOAD,2023-11-15 10:02:45,14.98326129,0.0002638,69.9991,315.8076,271.1586,88.927,-4.5862e-05,-6.4e-06,0.0,0 STARLINK-5931,1 56785U 23078U   23319.41858595 -.00000640  00000-0 -45862-4 0  9995,2 56785  69.9991 315.8076 0002638 271.1586  88.9270 14.98326129 26754,6950.205,96.107,573.903,570.236,0.0
56785.0,STARLINK-5931,PAYLOAD,2023-11-15 22:51:50,14.9832729,0.0002782,69.9986,314.4601,273.3181,86.766,-8.1335e-06,-1.9e-06,0.0,0 STARLINK-5931,1 56785U 23078U   23319.95266491 -.00000190  00000-0 -81335-5 0  9998,2 56785  69.9986 314.4601 0002782 273.3181  86.7660 14.98327290 26830,6950.201,96.107,574.0,570.133,0.0
56785.0,STARLINK-5931,PAYLOAD,2023-11-16 08:28:38,14.98327808,0.0002299,70.0002,313.4517,267.9156,92.174,8.8585e-06,1.3e-07,0.0,0 STARLINK-5931,1 56785U 23078U   23320.35322438  .00000013  00000-0  88585-5 0  9994,2 56785  70.0002 313.4517 0002299 267.9156  92.1740 14.98327808 26465,6950.2,96.107,573.663,570.467,0.0
56785.0,STARLINK-5931,PAYLOAD,2023-11-16 16:29:18,14.98354885,0.0002364,70.0007,312.609,278.3067,81.7824,-0.00041999,-5.104e-05,0.0,0 STARLINK-5931,1 56785U 23078U   23320.68701702 -.00005104  00000-0 -41999-3 0  9999,2 56785  70.0007 312.6090 0002364 278.3067  81.7824 14.98354885 26515,6950.116,96.105,573.624,570.338,0.0
56785.0,STARLINK-5931,PAYLOAD,2023-11-17 00:29:58,14.98332462,0.0002585,70.0003,311.7678,269.2415,90.8448,-9.6482e-06,-2.08e-06,0.0,0 STARLINK-5931,1 56785U 23078U   23321.02082169 -.00000208  00000-0 -96482-5 0  9996,2 56785  70.0003 311.7678 0002585 269.2415  90.8448 14.98332462 26569,6950.185,96.107,573.847,570.254,0.0
56785.0,STARLINK-5931,PAYLOAD,2023-11-17 10:06:47,14.98325278,0.0001958,70.0004,310.7574,264.9708,95.1228,1.9815e-05,1.44e-06,0.0,0 STARLINK-5931,1 56785U 23078U   23321.42138629  .00000144  00000-0  19815-4 0  9994,2 56785  70.0004 310.7574 0001958 264.9708  95.1228 14.98325278 27050,6950.207,96.107,573.433,570.712,0.0
56785.0,STARLINK-5931,PAYLOAD,2023-11-17 16:31:19,14.98327691,0.0002449,70.0004,310.0833,276.8708,83.2173,8.1404e-05,8.78e-06,0.0,0 STARLINK-5931,1 56785U 23078U   23321.68842287  .00000878  00000-0  81404-4 0  9991,2 56785  70.0004 310.0833 0002449 276.8708  83.2173 14.98327691 27091,6950.2,96.107,573.767,570.363,0.0
56785.0,STARLINK-5931,PAYLOAD,2023-11-18 03:44:16,14.98329268,0.0002243,69.9998,308.9052,247.1659,112.9263,-8.4184e-05,-1.097e-05,0.0,0 STARLINK-5931,1 56785U 23078U   23322.15574398 -.00001097  00000-0 -84184-4 0  9993,2 56785  69.9998 308.9052 0002243 247.1659 112.9263 14.98329268 26739,6950.195,96.107,573.619,570.501,0.0
56785.0,STARLINK-5931,PAYLOAD,2023-11-18 10:08:48,14.98329258,0.0002649,70.0001,308.2316,264.2112,95.8745,-0.00010069,-1.294e-05,0.0,0 STARLINK-5931,1 56785U 23078U   23322.42278397 -.00001294  00000-0 -10069-3 0  9992,2 56785  70.0001 308.2316 0002649 264.2112  95.8745 14.98329258 27203,6950.195,96.107,573.901,570.219,0.0
56785.0,STARLINK-5931,PAYLOAD,2023-11-18 16:33:19,14.98360894,0.0002522,70.0003,307.5583,279.4732,80.6142,-0.00054542,-6.6e-05,0.0,0 STARLINK-5931,1 56785U 23078U   23322.68981420 -.00006600  00000-0 -54542-3 0  9998,2 56785  70.0003 307.5583 0002522 279.4732  80.6142 14.98360894 26819,6950.097,96.105,573.715,570.21,0.0
56785.0,STARLINK-5931,PAYLOAD,2023-11-18 22:57:52,14.98328717,0.0002689,69.9991,306.8854,273.0107,87.0744,-9.2964e-06,-2.04e-06,0.0,0 STARLINK-5931,1 56785U 23078U   23322.95686193 -.00000204  00000-0 -92964-5 0  9993,2 56785  69.9991 306.8854 0002689 273.0107  87.0744 14.98328717 27284,6950.197,96.107,573.931,570.193,0.0
56785.0,STARLINK-5931,PAYLOAD,2023-11-19 03:46:17,14.98328755,0.0002632,69.999,306.3806,269.9222,90.1635,-7.9787e-06,-1.88e-06,0.0,0 STARLINK-5931,1 56785U 23078U   23323.15714153 -.00000188  00000-0 -79787-5 0  9993,2 56785  69.9990 306.3806 0002632 269.9222  90.1635 14.98328755 26886,6950.197,96.107,573.891,570.232,0.0
56785.0,STARLINK-5931,PAYLOAD,2023-11-19 08:34:41,14.98328658,0.0002603,69.9991,305.8753,271.4094,88.6767,-5.8886e-06,-1.63e-06,0.0,0 STARLINK-5931,1 56785U 23078U   23323.35742190 -.00000163  00000-0 -58886-5 0  9997,2 56785  69.9991 305.8753 0002603 271.4094  88.6767 14.98328658 27347,6950.197,96.107,573.871,570.253,0.0
56785.0,STARLINK-5931,PAYLOAD,2023-11-19 16:35:21,14.98327215,0.0002538,69.9994,305.0334,271.8796,88.2072,-9.1047e-06,-2.02e-06,0.0,0 STARLINK-5931,1 56785U 23078U   23323.69122322 -.00000202  00000-0 -91047-5 0  9993,2 56785  69.9994 305.0334 0002538 271.8796  88.2072 14.98327215 27395,6950.202,96.107,573.83,570.303,0.0
56785.0,STARLINK-5931,PAYLOAD,2023-11-20 03:48:17,14.98331547,0.0002751,69.9987,303.8557,271.8877,88.1967,1.0888e-05,3.7e-07,0.0,0 STARLINK-5931,1 56785U 23078U   23324.15853888  .00000037  00000-0  10888-4 0  9990,2 56785  69.9987 303.8557 0002751 271.8877  88.1967 14.98331547 27033,6950.188,96.107,573.965,570.141,0.0
56785.0,STARLINK-5931,PAYLOAD,2023-11-20 08:36:41,14.98328141,0.0002499,69.9989,303.3505,266.5122,93.5751,0.00011272,1.252e-05,0.0,0 STARLINK-5931,1 56785U 23078U   23324.35881813  .00001252  00000-0  11272-3 0  9998,2 56785  69.9989 303.3505 0002499 266.5122  93.5751 14.98328141 27493,6950.199,96.107,573.8,570.327,0.0
56785.0,STARLINK-5931,PAYLOAD,2023-11-20 16:37:22,14.9831861,0.0002564,69.999,302.5089,275.6323,84.4543,0.00023502,2.711e-05,0.0,0 STARLINK-5931,1 56785U 23078U   23324.69262191  .00002711  00000-0  23502-3 0  9997,2 56785  69.9990 302.5089 0002564 275.6323  84.4543 14.98318610 27544,6950.228,96.108,573.875,570.311,0.0
